IRIDIUM 124             
1 42810U 17039H   24224.94860373  .00000805  00000+0  23322-3 0  9996
2 42810  86.4499 212.1288 0002165  80.9819 279.1627 14.43294388377861
IRIDIUM 128             
1 42811U 17039J   24224.61734499  .00000131  00000+0  39853-4 0  9999
2 42811  86.3985 307.0652 0002282  88.2514 271.8943 14.34218149373297
IRIDIUM 121             
1 42812U 17039K   24224.85493945  .00000657  00000+0  22736-3 0  9998
2 42812  86.3937 275.4497 0002271  89.6841 270.4615 14.34220576373171
IRIDIUM 133             
1 42955U 17061A   24224.57928896  .00000530  00000+0  18201-3 0  9990
2 42955  86.3984 307.1822 0002356  94.3288 265.8177 14.34220662358088
IRIDIUM 122             
1 42957U 17061C   24224.68077079  .00000176  00000+0  55621-4 0  9996
2 42957  86.3982 307.0725 0002343  92.2936 267.8528 14.34217488358109
IRIDIUM 129             
1 42958U 17061D   24224.63637084  .00000021  00000+0  32413-6 0  9995
2 42958  86.3987 307.1512 0002494  94.7660 265.3820 14.34215312358111
